{"type": "FeatureCollection", "features": [{"type": "Feature", "properties": {"type": "subway", "name": "Subway Line 1"}, "geometry": {"type": "LineString", "coordinates": [[127.19288775070895, 37.57765958050745], [127.19083164033053, 37.60129146012491], [127.17244910707012, 37.60627765081504], [127.20029376051528, 37.58855574114117], [127.20642872946591, 37.61469936855459], [127.1818584409464, 37.63940713461843], [127.20058921118479, 37.642609874084826], [127.22476049773493, 37.633370968014695]]}}, {"type": "Feature", "properties": {"type": "subway", "name": "Subway Line 2"}, "geometry": {"type": "LineString", "coordinates": [[127.12328772600415, 37.51257774104446], [127.13891486696266, 37.529315630092135], [127.11605012839982, 37.51894157620014], [127.13367578870624, 37.51556207350613], [127.11167367701792, 37.52379103372017], [127.11569761377159, 37.53487293992613], [127.14243884041697, 37.54201551225424], [127.15681221990401, 37.5641384193681]]}}, {"type": "Feature", "properties": {"type": "subway", "name": "Subway Line 3"}, "geometry": {"type": "LineString", "coordinates": [[126.94582072893608, 37.56644587926319], [126.95610623716512, 37.594991345879066], [126.95340242820942, 37.620732221834764], [126.94992973754186, 37.62036804814045], [126.96539421108814, 37.61669883808937], [126.97196383797062, 37.62346225881598], [126.9920455206407, 37.627635967514614], [127.01063882988505, 37.59797308784718]]}}, {"type": "Feature", "properties": {"type": "subway", "name": "Subway Line 4"}, "geometry": {"type": "LineString", "coordinates": [[127.13335998044838, 37.55525403991222], [127.147725636288, 37.58056311988464], [127.14811663293119, 37.60322935466302], [127.11940629984315, 37.578747642742854], [127.14803588152043, 37.60847090550566], [127.17028711945433, 37.621460594062924], [127.16986842672011, 37.59381900979964], [127.17188603786569, 37.616681319814006]]}}, {"type": "Feature", "properties": {"type": "subway", "name": "Subway Line 5"}, "geometry": {"type": "LineString", "coordinates": [[127.03768159350291, 37.469772542990604], [127.0520075849685, 37.45989321240847], [127.04062282132327, 37.44928953872961], [127.06874522396929, 37.43276153862475], [127.071268438681, 37.45166547725404], [127.04394444123021, 37.42477893815292], [127.03430630707112, 37.45310715003147], [127.00714892414221, 37.4580495671407]]}}, {"type": "Feature", "properties": {"type": "sewer", "name": "Old Sewer Pipe 1"}, "geometry": {"type": "LineString", "coordinates": [[126.95401129450913, 37.57999063315843], [126.96163334766635, 37.57348072439257], [126.96559566472787, 37.58285288142806], [126.96142493766908, 37.579056651052554]]}}, {"type": "Feature", "properties": {"type": "sewer", "name": "Old Sewer Pipe 2"}, "geometry": {"type": "LineString", "coordinates": [[127.01292689185307, 37.47023494404451], [127.0178363801934, 37.46509014617774], [127.00819524933895, 37.4658959334576], [127.01019346019257, 37.460232035636075]]}}, {"type": "Feature", "properties": {"type": "sewer", "name": "Old Sewer Pipe 3"}, "geometry": {"type": "LineString", "coordinates": [[126.99844372862532, 37.58435672410127], [126.99652463570057, 37.59410510847729], [126.99241908817794, 37.58848846816701], [126.99133919594917, 37.59630611252871]]}}, {"type": "Feature", "properties": {"type": "sewer", "name": "Old Sewer Pipe 4"}, "geometry": {"type": "LineString", "coordinates": [[126.88815586051045, 37.49108405680561], [126.88806488197854, 37.49201544894377], [126.89515844888132, 37.49003052703914], [126.8991168768858, 37.485755040722005]]}}, {"type": "Feature", "properties": {"type": "sewer", "name": "Old Sewer Pipe 5"}, "geometry": {"type": "LineString", "coordinates": [[127.04181071965357, 37.54720979710885], [127.03314855461473, 37.541052974188894], [127.03342263905051, 37.540982413541634], [127.02618582726335, 37.5339226220976]]}}, {"type": "Feature", "properties": {"type": "sewer", "name": "Old Sewer Pipe 6"}, "geometry": {"type": "LineString", "coordinates": [[126.82346171842062, 37.632271763383805], [126.81765447198552, 37.632838541514644], [126.81010645096893, 37.62917497839205], [126.81772025325753, 37.62818281355183]]}}, {"type": "Feature", "properties": {"type": "sewer", "name": "Old Sewer Pipe 7"}, "geometry": {"type": "LineString", "coordinates": [[127.04819569632791, 37.55735352387947], [127.03875299526507, 37.558038775107825], [127.03294217698429, 37.55148407268534], [127.03778087695652, 37.54984199340806]]}}, {"type": "Feature", "properties": {"type": "sewer", "name": "Old Sewer Pipe 8"}, "geometry": {"type": "LineString", "coordinates": [[127.01014525643848, 37.52398202927734], [127.00282028060678, 37.51684577245644], [127.00098538065177, 37.513844756813604], [127.00182682256721, 37.504242142572906]]}}, {"type": "Feature", "properties": {"type": "sewer", "name": "Old Sewer Pipe 9"}, "geometry": {"type": "LineString", "coordinates": [[127.09350163270571, 37.463506837254066], [127.08715374950063, 37.45931844124143], [127.09706809012327, 37.45295678518334], [127.10152735326982, 37.45011755202767]]}}, {"type": "Feature", "properties": {"type": "sewer", "name": "Old Sewer Pipe 10"}, "geometry": {"type": "LineString", "coordinates": [[127.05283177966777, 37.58485508977876], [127.04967332263766, 37.578686923892576], [127.04733821689112, 37.57462165492253], [127.05596792604167, 37.57044428157121]]}}, {"type": "Feature", "properties": {"type": "sewer", "name": "Old Sewer Pipe 11"}, "geometry": {"type": "LineString", "coordinates": [[126.83114446091616, 37.57877104408357], [126.82258108602265, 37.57557654691365], [126.81589407500951, 37.57007684545262], [126.81019653834545, 37.5704029288698]]}}, {"type": "Feature", "properties": {"type": "sewer", "name": "Old Sewer Pipe 12"}, "geometry": {"type": "LineString", "coordinates": [[127.18972134047233, 37.60712909801944], [127.18171273578803, 37.60120203847874], [127.1841658548487, 37.60692847918682], [127.18787661245253, 37.61619735495414]]}}, {"type": "Feature", "properties": {"type": "sewer", "name": "Old Sewer Pipe 13"}, "geometry": {"type": "LineString", "coordinates": [[126.89320598921574, 37.547948460354576], [126.89692010209471, 37.5387427909641], [126.8999525697045, 37.54070314846435], [126.90984186781418, 37.54599875547363]]}}, {"type": "Feature", "properties": {"type": "sewer", "name": "Old Sewer Pipe 14"}, "geometry": {"type": "LineString", "coordinates": [[126.87447990966434, 37.61511547525362], [126.87613420252073, 37.61987647973881], [126.87789214384895, 37.61797904287895], [126.88275156597771, 37.61790188931675]]}}, {"type": "Feature", "properties": {"type": "sewer", "name": "Old Sewer Pipe 15"}, "geometry": {"type": "LineString", "coordinates": [[126.82557145140161, 37.5591482887642], [126.82326214670836, 37.554493594398785], [126.81964712699771, 37.5584446373311], [126.81296171352508, 37.56790453191108]]}}, {"type": "Feature", "properties": {"type": "sewer", "name": "Old Sewer Pipe 16"}, "geometry": {"type": "LineString", "coordinates": [[126.91153931705762, 37.47157591810564], [126.91059946453318, 37.46535361781866], [126.91528472560874, 37.47192160058143], [126.91127465221712, 37.48030951463119]]}}, {"type": "Feature", "properties": {"type": "sewer", "name": "Old Sewer Pipe 17"}, "geometry": {"type": "LineString", "coordinates": [[126.84608144027307, 37.457912757142616], [126.8444734035695, 37.46498521001195], [126.84030340246845, 37.468858793569275], [126.84377897381012, 37.467866652454795]]}}, {"type": "Feature", "properties": {"type": "sewer", "name": "Old Sewer Pipe 18"}, "geometry": {"type": "LineString", "coordinates": [[127.06338330402426, 37.520157273521754], [127.06525115462301, 37.522357492067606], [127.06407059503957, 37.520990250966705], [127.06582439391477, 37.51600456601774]]}}, {"type": "Feature", "properties": {"type": "sewer", "name": "Old Sewer Pipe 19"}, "geometry": {"type": "LineString", "coordinates": [[127.17564137127786, 37.608665193614456], [127.17918191199561, 37.598826723283345], [127.17427046413066, 37.59346161195557], [127.1674303228292, 37.59994807300811]]}}, {"type": "Feature", "properties": {"type": "sewer", "name": "Old Sewer Pipe 20"}, "geometry": {"type": "LineString", "coordinates": [[127.02609914587907, 37.63728625179743], [127.01982635134095, 37.63661663222475], [127.02792437139476, 37.64345297528115], [127.03374021361661, 37.65301028144787]]}}]}