{"type": "FeatureCollection", "features": [{"type": "Feature", "properties": {"type": "subway", "name": "Mock Line 0"}, "geometry": {"type": "LineString", "coordinates": [[126.8, 37.45], [127.2, 37.45]]}}, {"type": "Feature", "properties": {"type": "subway", "name": "Mock Line 1"}, "geometry": {"type": "LineString", "coordinates": [[126.8, 37.470000000000006], [127.2, 37.470000000000006]]}}, {"type": "Feature", "properties": {"type": "subway", "name": "Mock Line 2"}, "geometry": {"type": "LineString", "coordinates": [[126.8, 37.49], [127.2, 37.49]]}}, {"type": "Feature", "properties": {"type": "subway", "name": "Mock Line 3"}, "geometry": {"type": "LineString", "coordinates": [[126.8, 37.510000000000005], [127.2, 37.510000000000005]]}}, {"type": "Feature", "properties": {"type": "subway", "name": "Mock Line 4"}, "geometry": {"type": "LineString", "coordinates": [[126.8, 37.53], [127.2, 37.53]]}}, {"type": "Feature", "properties": {"type": "subway", "name": "Mock Line 5"}, "geometry": {"type": "LineString", "coordinates": [[126.8, 37.550000000000004], [127.2, 37.550000000000004]]}}, {"type": "Feature", "properties": {"type": "subway", "name": "Mock Line 6"}, "geometry": {"type": "LineString", "coordinates": [[126.8, 37.57], [127.2, 37.57]]}}, {"type": "Feature", "properties": {"type": "subway", "name": "Mock Line 7"}, "geometry": {"type": "LineString", "coordinates": [[126.8, 37.59], [127.2, 37.59]]}}, {"type": "Feature", "properties": {"type": "subway", "name": "Mock Line 8"}, "geometry": {"type": "LineString", "coordinates": [[126.8, 37.61], [127.2, 37.61]]}}, {"type": "Feature", "properties": {"type": "subway", "name": "Mock Line 9"}, "geometry": {"type": "LineString", "coordinates": [[126.8, 37.63], [127.2, 37.63]]}}, {"type": "Feature", "properties": {"type": "subway", "name": "Mock Line 10"}, "geometry": {"type": "LineString", "coordinates": [[126.8, 37.650000000000006], [127.2, 37.650000000000006]]}}, {"type": "Feature", "properties": {"type": "subway", "name": "Mock Line 11"}, "geometry": {"type": "LineString", "coordinates": [[126.8, 37.67], [127.2, 37.67]]}}, {"type": "Feature", "properties": {"type": "subway", "name": "Mock Line 12"}, "geometry": {"type": "LineString", "coordinates": [[126.8, 37.45], [126.8, 37.7]]}}, {"type": "Feature", "properties": {"type": "subway", "name": "Mock Line 13"}, "geometry": {"type": "LineString", "coordinates": [[126.83, 37.45], [126.83, 37.7]]}}, {"type": "Feature", "properties": {"type": "subway", "name": "Mock Line 14"}, "geometry": {"type": "LineString", "coordinates": [[126.86, 37.45], [126.86, 37.7]]}}, {"type": "Feature", "properties": {"type": "subway", "name": "Mock Line 15"}, "geometry": {"type": "LineString", "coordinates": [[126.89, 37.45], [126.89, 37.7]]}}, {"type": "Feature", "properties": {"type": "subway", "name": "Mock Line 16"}, "geometry": {"type": "LineString", "coordinates": [[126.92, 37.45], [126.92, 37.7]]}}, {"type": "Feature", "properties": {"type": "subway", "name": "Mock Line 17"}, "geometry": {"type": "LineString", "coordinates": [[126.95, 37.45], [126.95, 37.7]]}}, {"type": "Feature", "properties": {"type": "subway", "name": "Mock Line 18"}, "geometry": {"type": "LineString", "coordinates": [[126.98, 37.45], [126.98, 37.7]]}}, {"type": "Feature", "properties": {"type": "subway", "name": "Mock Line 19"}, "geometry": {"type": "LineString", "coordinates": [[127.00999999999999, 37.45], [127.00999999999999, 37.7]]}}, {"type": "Feature", "properties": {"type": "subway", "name": "Mock Line 20"}, "geometry": {"type": "LineString", "coordinates": [[127.03999999999999, 37.45], [127.03999999999999, 37.7]]}}, {"type": "Feature", "properties": {"type": "subway", "name": "Mock Line 21"}, "geometry": {"type": "LineString", "coordinates": [[127.07, 37.45], [127.07, 37.7]]}}, {"type": "Feature", "properties": {"type": "subway", "name": "Mock Line 22"}, "geometry": {"type": "LineString", "coordinates": [[127.1, 37.45], [127.1, 37.7]]}}, {"type": "Feature", "properties": {"type": "subway", "name": "Mock Line 23"}, "geometry": {"type": "LineString", "coordinates": [[127.13, 37.45], [127.13, 37.7]]}}, {"type": "Feature", "properties": {"type": "subway", "name": "Mock Line 24"}, "geometry": {"type": "LineString", "coordinates": [[127.16, 37.45], [127.16, 37.7]]}}, {"type": "Feature", "properties": {"type": "subway", "name": "Mock Line 25"}, "geometry": {"type": "LineString", "coordinates": [[127.19, 37.45], [127.19, 37.7]]}}, {"type": "Feature", "properties": {"type": "subway", "name": "Mock Line 26"}, "geometry": {"type": "LineString", "coordinates": [[127.22, 37.45], [127.22, 37.7]]}}]}